[{"OBJECT_NAME":"COSMOS 2251 DEB","OBJECT_ID":"1993-036FR","EPOCH":"2026-03-04T12:23:05.690112","MEAN_MOTION":14.60708978,"ECCENTRICITY":0.0075888,"INCLINATION":74.0699,"RA_OF_ASC_NODE":204.0767,"ARG_OF_PERICENTER":228.837,"MEAN_ANOMALY":175.6466,"EPHEMERIS_TYPE":0,"CLASSIFICATION_TYPE":"U","NORAD_CAT_ID":33982,"ELEMENT_SET_NO":999,"REV_AT_EPOCH":90353,"BSTAR":0.00087707,"MEAN_MOTION_DOT":4.423e-5,"MEAN_MOTION_DDOT":0},{"OBJECT_NAME":"COSMOS 2251 DEB","OBJECT_ID":"1993-036FS","EPOCH":"2026-03-04T18:59:38.776128","MEAN_MOTION":14.51052138,"ECCENTRICITY":0.0018926,"INCLINATION":74.0536,"RA_OF_ASC_NODE":352.8846,"ARG_OF_PERICENTER":74.744,"MEAN_ANOMALY":316.0475,"EPHEMERIS_TYPE":0,"CLASSIFICATION_TYPE":"U","NORAD_CAT_ID":33983,"ELEMENT_SET_NO":999,"REV_AT_EPOCH":89819,"BSTAR":0.00068381,"MEAN_MOTION_DOT":2.687e-5,"MEAN_MOTION_DDOT":0},{"OBJECT_NAME":"COSMOS 2251 DEB","OBJECT_ID":"1993-036FT","EPOCH":"2026-03-04T08:34:50.924640","MEAN_MOTION":14.67253129,"ECCENTRICITY":0.00239331,"INCLINATION":74.0092,"RA_OF_ASC_NODE":189.3908,"ARG_OF_PERICENTER":358.2135,"MEAN_ANOMALY":32.7864,"EPHEMERIS_TYPE":0,"CLASSIFICATION_TYPE":"U","NORAD_CAT_ID":33984,"ELEMENT_SET_NO":999,"REV_AT_EPOCH":90263,"BSTAR":0.0014002878,"MEAN_MOTION_DOT":7.903e-5,"MEAN_MOTION_DDOT":0},{"OBJECT_NAME":"COSMOS 2251 DEB","OBJECT_ID":"1993-036FV","EPOCH":"2026-03-04T15:51:05.590368","MEAN_MOTION":14.4367989,"ECCENTRICITY":0.0041563,"INCLINATION":74.037,"RA_OF_ASC_NODE":150.4555,"ARG_OF_PERICENTER":208.6361,"MEAN_ANOMALY":303.0756,"EPHEMERIS_TYPE":0,"CLASSIFICATION_TYPE":"U","NORAD_CAT_ID":33986,"ELEMENT_SET_NO":999,"REV_AT_EPOCH":89210,"BSTAR":0.00088349,"MEAN_MOTION_DOT":3.006e-5,"MEAN_MOTION_DDOT":0},{"OBJECT_NAME":"COSMOS 2251 DEB","OBJECT_ID":"1993-036FZ","EPOCH":"2026-03-04T06:53:23.103744","MEAN_MOTION":13.50139798,"ECCENTRICITY":0.0405011,"INCLINATION":73.9286,"RA_OF_ASC_NODE":155.0685,"ARG_OF_PERICENTER":160.5588,"MEAN_ANOMALY":234.9243,"EPHEMERIS_TYPE":0,"CLASSIFICATION_TYPE":"U","NORAD_CAT_ID":33990,"ELEMENT_SET_NO":999,"REV_AT_EPOCH":83830,"BSTAR":0.0010260362,"MEAN_MOTION_DOT":1.07e-5,"MEAN_MOTION_DDOT":0},{"OBJECT_NAME":"COSMOS 2251 DEB","OBJECT_ID":"1993-036GB","EPOCH":"2026-03-04T11:16:15.396096","MEAN_MOTION":14.67043881,"ECCENTRICITY":0.00547681,"INCLINATION":74.0245,"RA_OF_ASC_NODE":179.9887,"ARG_OF_PERICENTER":277.9947,"MEAN_ANOMALY":157.605,"EPHEMERIS_TYPE":0,"CLASSIFICATION_TYPE":"U","NORAD_CAT_ID":33992,"ELEMENT_SET_NO":999,"REV_AT_EPOCH":90323,"BSTAR":0.001250567,"MEAN_MOTION_DOT":7.149e-5,"MEAN_MOTION_DDOT":0},{"OBJECT_NAME":"COSMOS 2251 DEB","OBJECT_ID":"1993-036GD","EPOCH":"2026-03-04T16:42:54.761760","MEAN_MOTION":14.412805,"ECCENTRICITY":0.0022627,"INCLINATION":74.0434,"RA_OF_ASC_NODE":38.7337,"ARG_OF_PERICENTER":158.3102,"MEAN_ANOMALY":21.9709,"EPHEMERIS_TYPE":0,"CLASSIFICATION_TYPE":"U","NORAD_CAT_ID":33994,"ELEMENT_SET_NO":999,"REV_AT_EPOCH":89600,"BSTAR":0.00013328,"MEAN_MOTION_DOT":4.06e-6,"MEAN_MOTION_DDOT":0},{"OBJECT_NAME":"COSMOS 2251 DEB","OBJECT_ID":"1993-036GE","EPOCH":"2026-03-04T02:20:12.021504","MEAN_MOTION":14.35247736,"ECCENTRICITY":0.00603358,"INCLINATION":74.0639,"RA_OF_ASC_NODE":330.4577,"ARG_OF_PERICENTER":323.149,"MEAN_ANOMALY":36.5522,"EPHEMERIS_TYPE":0,"CLASSIFICATION_TYPE":"U","NORAD_CAT_ID":33995,"ELEMENT_SET_NO":999,"REV_AT_EPOCH":88686,"BSTAR":0.0011747652,"MEAN_MOTION_DOT":3.408e-5,"MEAN_MOTION_DDOT":0},{"OBJECT_NAME":"COSMOS 2251 DEB","OBJECT_ID":"1993-036GJ","EPOCH":"2026-03-04T11:02:40.174080","MEAN_MOTION":14.85472206,"ECCENTRICITY":0.00469882,"INCLINATION":73.9161,"RA_OF_ASC_NODE":67.5152,"ARG_OF_PERICENTER":299.9728,"MEAN_ANOMALY":59.679,"EPHEMERIS_TYPE":0,"CLASSIFICATION_TYPE":"U","NORAD_CAT_ID":33999,"ELEMENT_SET_NO":999,"REV_AT_EPOCH":90463,"BSTAR":0.0023770245,"MEAN_MOTION_DOT":0.00020949,"MEAN_MOTION_DDOT":0},{"OBJECT_NAME":"COSMOS 2251 DEB","OBJECT_ID":"1993-036GL","EPOCH":"2026-03-04T05:38:07.197792","MEAN_MOTION":14.37205988,"ECCENTRICITY":0.00205447,"INCLINATION":74.0381,"RA_OF_ASC_NODE":131.7287,"ARG_OF_PERICENTER":200.8455,"MEAN_ANOMALY":215.3176,"EPHEMERIS_TYPE":0,"CLASSIFICATION_TYPE":"U","NORAD_CAT_ID":34001,"ELEMENT_SET_NO":999,"REV_AT_EPOCH":89317,"BSTAR":0.00020477412,"MEAN_MOTION_DOT":5.85e-6,"MEAN_MOTION_DDOT":0},{"OBJECT_NAME":"COSMOS 2251 DEB","OBJECT_ID":"1993-036GN","EPOCH":"2026-03-04T05:51:08.112096","MEAN_MOTION":13.8459468,"ECCENTRICITY":0.02786109,"INCLINATION":74.0781,"RA_OF_ASC_NODE":147.9075,"ARG_OF_PERICENTER":241.6953,"MEAN_ANOMALY":115.5809,"EPHEMERIS_TYPE":0,"CLASSIFICATION_TYPE":"U","NORAD_CAT_ID":34003,"ELEMENT_SET_NO":999,"REV_AT_EPOCH":85553,"BSTAR":0.0026504178,"MEAN_MOTION_DOT":4.0e-5,"MEAN_MOTION_DDOT":0},{"OBJECT_NAME":"COSMOS 2251 DEB","OBJECT_ID":"1993-036GP","EPOCH":"2026-03-04T05:53:14.332992","MEAN_MOTION":14.49903486,"ECCENTRICITY":0.00297849,"INCLINATION":74.036,"RA_OF_ASC_NODE":160.1778,"ARG_OF_PERICENTER":159.5396,"MEAN_ANOMALY":200.6965,"EPHEMERIS_TYPE":0,"CLASSIFICATION_TYPE":"U","NORAD_CAT_ID":34004,"ELEMENT_SET_NO":999,"REV_AT_EPOCH":89211,"BSTAR":0.0017976636,"MEAN_MOTION_DOT":6.967e-5,"MEAN_MOTION_DDOT":0},{"OBJECT_NAME":"COSMOS 2251 DEB","OBJECT_ID":"1993-036GQ","EPOCH":"2026-03-04T10:53:04.559136","MEAN_MOTION":14.40380032,"ECCENTRICITY":0.00201154,"INCLINATION":74.0437,"RA_OF_ASC_NODE":62.6636,"ARG_OF_PERICENTER":167.5921,"MEAN_ANOMALY":316.9673,"EPHEMERIS_TYPE":0,"CLASSIFICATION_TYPE":"U","NORAD_CAT_ID":34005,"ELEMENT_SET_NO":999,"REV_AT_EPOCH":89555,"BSTAR":0.00015969426,"MEAN_MOTION_DOT":4.82e-6,"MEAN_MOTION_DDOT":0},{"OBJECT_NAME":"COSMOS 2251 DEB","OBJECT_ID":"1993-036GR","EPOCH":"2026-03-04T17:55:09.221664","MEAN_MOTION":15.03132646,"ECCENTRICITY":0.0011417,"INCLINATION":74.0534,"RA_OF_ASC_NODE":337.1252,"ARG_OF_PERICENTER":240.0995,"MEAN_ANOMALY":150.7266,"EPHEMERIS_TYPE":0,"CLASSIFICATION_TYPE":"U","NORAD_CAT_ID":34006,"ELEMENT_SET_NO":999,"REV_AT_EPOCH":89897,"BSTAR":0.0045613,"MEAN_MOTION_DOT":0.000622,"MEAN_MOTION_DDOT":0},{"OBJECT_NAME":"COSMOS 2251 DEB","OBJECT_ID":"1993-036GS","EPOCH":"2026-03-04T18:47:07.577376","MEAN_MOTION":14.65534352,"ECCENTRICITY":0.0047367,"INCLINATION":74.0195,"RA_OF_ASC_NODE":188.8698,"ARG_OF_PERICENTER":302.0887,"MEAN_ANOMALY":57.5687,"EPHEMERIS_TYPE":0,"CLASSIFICATION_TYPE":"U","NORAD_CAT_ID":34007,"ELEMENT_SET_NO":999,"REV_AT_EPOCH":90281,"BSTAR":0.0010788,"MEAN_MOTION_DOT":5.921e-5,"MEAN_MOTION_DDOT":0},{"OBJECT_NAME":"COSMOS 2251 DEB","OBJECT_ID":"1993-036GT","EPOCH":"2026-03-04T09:04:25.623840","MEAN_MOTION":14.33210565,"ECCENTRICITY":0.00230699,"INCLINATION":74.0348,"RA_OF_ASC_NODE":181.3152,"ARG_OF_PERICENTER":162.261,"MEAN_ANOMALY":254.5359,"EPHEMERIS_TYPE":0,"CLASSIFICATION_TYPE":"U","NORAD_CAT_ID":34008,"ELEMENT_SET_NO":999,"REV_AT_EPOCH":89134,"BSTAR":0.00017649228,"MEAN_MOTION_DOT":4.61e-6,"MEAN_MOTION_DDOT":0}]
