COSMOS 2251 DEB         
1 33982U 93036FR  26063.51603808  .00004423  00000+0  87707-3 0  9998
2 33982  74.0699 204.0767 0075888 228.8370 175.6466 14.60708978903539
COSMOS 2251 DEB         
1 33983U 93036FS  26063.79142102  .00002687  00000+0  68381-3 0  9991
2 33983  74.0536 352.8846 0018926  74.7440 316.0475 14.51052138898192
COSMOS 2251 DEB         
1 33984U 93036FT  26063.35753385  .00007903  00000+0  14003-2 0  9992
2 33984  74.0092 189.3908 0023933 358.2135  32.7864 14.67253129902636
COSMOS 2251 DEB         
1 33986U 93036FV  26063.66048137  .00003006  00000+0  88349-3 0  9995
2 33986  74.0370 150.4555 0041563 208.6361 303.0756 14.43679890892107
COSMOS 2251 DEB         
1 33990U 93036FZ  26063.28707296  .00001070  00000+0  10260-2 0  9991
2 33990  73.9286 155.0685 0405011 160.5588 234.9243 13.50139798838300
COSMOS 2251 DEB         
1 33992U 93036GB  26063.46962264  .00007149  00000+0  12506-2 0  9999
2 33992  74.0245 179.9887 0054768 277.9947 157.6050 14.67043881903237
COSMOS 2251 DEB         
1 33994U 93036GD  26063.69646715  .00000406  00000+0  13328-3 0  9999
2 33994  74.0434  38.7337 0022627 158.3102  21.9709 14.41280500896008
COSMOS 2251 DEB         
1 33995U 93036GE  26063.09736136  .00003408  00000+0  11748-2 0  9999
2 33995  74.0639 330.4577 0060335 323.1490  36.5522 14.35247736886869
COSMOS 2251 DEB         
1 33999U 93036GJ  26063.46018720  .00020949  00000+0  23770-2 0  9993
2 33999  73.9161  67.5152 0046988 299.9728  59.6790 14.85472206904636
COSMOS 2251 DEB         
1 34001U 93036GL  26063.23480553  .00000585  00000+0  20477-3 0  9996
2 34001  74.0381 131.7287 0020544 200.8455 215.3176 14.37205988893171
COSMOS 2251 DEB         
1 34003U 93036GN  26063.24384389  .00004000  00000+0  26504-2 0  9991
2 34003  74.0781 147.9075 0278610 241.6953 115.5809 13.84594680855539
COSMOS 2251 DEB         
1 34004U 93036GP  26063.24530478  .00006967  00000+0  17977-2 0  9992
2 34004  74.0360 160.1778 0029784 159.5396 200.6965 14.49903486892118
COSMOS 2251 DEB         
1 34005U 93036GQ  26063.45352499  .00000482  00000+0  15969-3 0  9997
2 34005  74.0437  62.6636 0020115 167.5921 316.9673 14.40380032895550
COSMOS 2251 DEB         
1 34006U 93036GR  26063.74663451  .00062200  00000+0  45613-2 0  9997
2 34006  74.0534 337.1252 0011417 240.0995 150.7266 15.03132646898973
COSMOS 2251 DEB         
1 34007U 93036GS  26063.78272659  .00005921  00000+0  10788-2 0  9990
2 34007  74.0195 188.8698 0047367 302.0887  57.5687 14.65534352902811
COSMOS 2251 DEB         
1 34008U 93036GT  26063.37807435  .00000461  00000+0  17649-3 0  9990
2 34008  74.0348 181.3152 0023069 162.2610 254.5359 14.33210565891340
